37192,GLOBALSTAR M075,2010,114.08,700.0,+,52.0,Active,1,LEO,Kazakhstan,Globalstar,Commercial,Communications,Soyuz,1 37192U 10054E   24363.38591269 -.00000081  00000+0  12443-3 0  9999,2 37192  51.9968 341.5890 0000434  60.4535 101.3546 12.62270687654271,12.62270687,4.34e-05,LEO
37193,GLOBALSTAR M073,2010,114.08,700.0,+,52.01,Active,1,LEO,Kazakhstan,Globalstar,Commercial,Communications,Soyuz,1 37193U 10054F   24363.46705220 -.00000058  00000+0  25603-3 0  9999,2 37193  52.0054 255.0318 0000858  57.5484 113.0680 12.62261626656278,12.62261626,8.58e-05,LEO
37739,GLOBALSTAR M083,2011,114.08,700.0,+,51.98,Active,1,LEO,Kazakhstan,Globalstar,Commercial,Communications,Soyuz,1 37739U 11033A   24363.84156737 -.00000057  00000+0  26161-3 0  9997,2 37739  51.9831 202.8550 0000917  91.1175 282.2327 12.62270127625707,12.62270127,9.17e-05,LEO
37740,GLOBALSTAR M088,2011,114.08,700.0,+,51.97,Active,1,LEO,Kazakhstan,Globalstar,Commercial,Communications,Soyuz,1 37740U 11033B   24363.57748762 -.00000117  00000+0 -71457-4 0  9991,2 37740  51.9729 109.2921 0000809 125.7834 247.4187 12.62266667620855,12.62266667,8.09e-05,LEO
37741,GLOBALSTAR M091,2011,114.08,700.0,+,52.0,Active,1,LEO,Kazakhstan,Globalstar,Commercial,Communications,Soyuz,1 37741U 11033C   24363.62343969 -.00000092  00000+0  67575-4 0  9995,2 37741  52.0007  72.4041 0000681 152.9490   8.2764 12.62272113621903,12.62272113,6.81e-05,LEO
37742,GLOBALSTAR M085,2011,114.08,700.0,+,51.99,Active,1,LEO,Kazakhstan,Globalstar,Commercial,Communications,Soyuz,1 37742U 11033D   24363.44706574 -.00000089  00000+0  84283-4 0  9992,2 37742  51.9886  24.1295 0000316 156.0015 344.1673 12.62263222622133,12.62263222,3.16e-05,LEO
37743,GLOBALSTAR M081,2011,114.08,700.0,+,52.0,Active,1,LEO,Kazakhstan,Globalstar,Commercial,Communications,Soyuz,1 37743U 11033E   24363.54919569 -.00000079  00000+0  13680-3 0  9995,2 37743  51.9977  26.4992 0000074 199.3997 285.7432 12.62274586622299,12.62274586,7.4e-06,LEO
37744,GLOBALSTAR M089,2011,114.08,700.0,+,52.0,Active,1,LEO,Kazakhstan,Globalstar,Commercial,Communications,Soyuz,1 37744U 11033F   24363.51663741 -.00000082  00000+0  12373-3 0  9993,2 37744  51.9952 340.8601 0000568  36.2222 119.9352 12.62274163623135,12.62274163,5.68e-05,LEO
